[{"OBJECT_NAME":"COSMOS 2493 (SKRL-756 1)","OBJECT_ID":"2013-078A","EPOCH":"2026-03-09T21:08:46.717728","MEAN_MOTION":15.01584319,"ECCENTRICITY":0.00118545,"INCLINATION":82.4165,"RA_OF_ASC_NODE":358.3033,"ARG_OF_PERICENTER":214.7485,"MEAN_ANOMALY":145.2966,"EPHEMERIS_TYPE":0,"CLASSIFICATION_TYPE":"U","NORAD_CAT_ID":39490,"ELEMENT_SET_NO":999,"REV_AT_EPOCH":66305,"BSTAR":0.00040276291,"MEAN_MOTION_DOT":5.252e-5,"MEAN_MOTION_DDOT":0},{"OBJECT_NAME":"STARLINK-32923","OBJECT_ID":"2025-037W","EPOCH":"2026-03-09T22:39:33.205248","MEAN_MOTION":14.98352474,"ECCENTRICITY":0.00028109,"INCLINATION":70.0035,"RA_OF_ASC_NODE":353.6756,"ARG_OF_PERICENTER":267.795,"MEAN_ANOMALY":92.2888,"EPHEMERIS_TYPE":0,"CLASSIFICATION_TYPE":"U","NORAD_CAT_ID":63097,"ELEMENT_SET_NO":999,"REV_AT_EPOCH":5864,"BSTAR":0.00026772695,"MEAN_MOTION_DOT":3.105e-5,"MEAN_MOTION_DDOT":0}]
